{"spkid": "20067367", "covariance": {"epoch": "2457990.5", "elements": [{"label": "e", "sigma": 3.53356523636075e-09, "name": "e", "title": "eccentricity", "value": ".212699737649373", "units": null}, {"name": "q", "sigma": 4.57987503613118e-09, "title": "perihelion distance", "value": "1.030221900917917", "units": "au", "label": "q"}, {"label": "tp", "title": "time of perihelion passage", "value": "2458035.443717058025", "units": "TDB", "sigma": 2.09644726465027e-06, "name": "tp"}, {"label": "node", "name": "om", "sigma": 2.58652542212064e-07, "units": "deg", "value": "264.5409454472648", "title": "longitude of the ascending node"}, {"sigma": 9.79269969547182e-07, "name": "w", "value": "184.7605322153239", "title": "argument of perihelion", "units": "deg", "label": "peri"}, {"name": "i", "sigma": 1.42031084866046e-07, "units": "deg", "title": "inclination", "value": "9.023296093693256", "label": "i"}], "data": [["1.248608327961717E-17", "-1.616509476622627E-17", "2.990184250398047E-16", "-2.700816021177859E-16", "-1.42673833038239E-16", "2.538145078007843E-16"], ["-1.616509476622627E-17", "2.097525534657762E-17", "-3.914798878750874E-16", "3.491867459299215E-16", "1.652523470625004E-16", "-3.334271907762011E-16"], ["2.990184250398047E-16", "-3.914798878750874E-16", "4.395091133459589E-12", "-5.464843871121447E-14", "1.974060901348164E-12", "-1.119454871607848E-13"], ["-2.700816021177859E-16", "3.491867459299215E-16", "-5.464843871121447E-14", "6.690113759276344E-14", "-7.570927596190525E-14", "-5.66963939760661E-15"], ["-1.42673833038239E-16", "1.652523470625004E-16", "1.974060901348164E-12", "-7.570927596190525E-14", "9.589696732569391E-13", "-4.976700224978308E-14"], ["2.538145078007843E-16", "-3.334271907762011E-16", "-1.119454871607848E-13", "-5.66963939760661E-15", "-4.976700224978308E-14", "2.0172829068226E-14"]], "labels": ["e", "q", "tp", "node", "peri", "i"]}, "elements": [{"value": ".2126112772705565", "title": "eccentricity", "units": null, "name": "e", "sigma": "3.5346E-9", "label": "e"}, {"name": "a", "sigma": "2.7985E-10", "units": "au", "title": "semi-major axis", "value": "1.30849550283369", "label": "a"}, {"value": "1.03029460267344", "title": "perihelion distance", "units": "au", "sigma": "4.5819E-9", "name": "q", "label": "q"}, {"title": "inclination; angle with respect to x-y ecliptic plane", "value": "9.023738871794158", "units": "deg", "sigma": "1.4204E-7", "name": "i", "label": "i"}, {"name": "om", "sigma": "2.5862E-7", "units": "deg", "value": "264.5060120251867", "title": "longitude of the ascending node", "label": "node"}, {"sigma": "9.7943E-7", "name": "w", "title": "argument of perihelion", "value": "184.85393269844", "units": "deg", "label": "peri"}, {"label": "M", "sigma": "1.5318E-6", "name": "ma", "title": "mean anomaly", "value": "284.0160391199723", "units": "deg"}, {"name": "tp", "sigma": "2.3425E-6", "title": "time of perihelion passage", "value": "2461315.892134329865", "units": "TDB", "label": "tp"}, {"sigma": "1.7539E-7", "name": "per", "value": "546.7096986999876", "title": "sidereal orbital period", "units": "d", "label": "period"}, {"label": "n", "name": "n", "sigma": "2.1124E-10", "value": ".6584847513333646", "title": "mean motion", "units": "deg/d"}, {"label": "Q", "title": "aphelion distance", "value": "1.58669640299394", "units": "au", "name": "ad", "sigma": "3.3934E-10"}], "epoch": "2461200.5"}